STARLINK-37229          
1 69659U 26143L   26185.56897085  .00692914  00000+0  32895-2 0  9990
2 69659  97.2825 229.3278 0001564  22.7446 337.3891 15.81143530  3170
STARLINK-37556          
1 69660U 26143M   26185.00003472 -.00027572  00000+0 -14367-3 0  9999
2 69660  97.2831 228.7305 0001210  82.7097 292.3102 15.80814941  3107
STARLINK-37867          
1 69661U 26143N   26185.58335648 -.00116914  00000+0 -61544-3 0  9994
2 69661  97.2835 229.3673 0001440  86.3691  55.1647 15.80899940  3169
STARLINK-37852          
1 69662U 26143P   26185.56669026  .00568722  00000+0  28680-2 0  9992
2 69662  97.2824 229.3301 0004079  11.6915 348.4447 15.80133248  3165
STARLINK-37554          
1 69663U 26143Q   26185.55986304  .00519759  00000+0  25319-2 0  9995
2 69663  97.2831 229.3401 0002126 295.8230  64.2819 15.81023342  3173
STARLINK-37830          
1 69664U 26143R   26185.56577747  .00666286  00000+0  32010-2 0  9998
2 69664  97.2834 229.3307 0000786  39.1182 321.0144 15.80946982  3164
STARLINK-37837          
1 69665U 26143S   26185.55919645  .00612667  00000+0  29503-2 0  9992
2 69665  97.2828 229.3404 0000867 312.4417  47.6778 15.81034356  3162
STARLINK-37943          
1 69666U 26143T   26185.56116684  .00501404  00000+0  25831-2 0  9992
2 69666  97.2819 229.3378 0004120  12.8971 347.2401 15.79833477  3165
STARLINK-37941          
1 69667U 26143U   26185.56243902  .00610184  00000+0  29378-2 0  9993
2 69667  97.2827 229.3357 0000604 325.7523  34.3706 15.81043812  3165
STARLINK-37930          
1 69668U 26143V   26185.56138000  .00574108  00000+0  27785-2 0  9991
2 69668  97.2829 229.3372 0000418   5.3914 354.7359 15.81021937  3160
STARLINK-37945          
1 69669U 26143W   26185.55966381  .00438566  00000+0  21776-2 0  9993
2 69669  97.2806 229.3392 0002252  67.4325 292.7182 15.80811908  3160
STARLINK-37948          
1 69670U 26143X   26185.58335648 -.02402192  00000+0 -22469-1 0  9993
2 69670  97.2850 229.3860 0001648  87.2676  96.2800 15.70925723  3162
STARLINK-37949          
1 69671U 26143Y   26185.58335648 -.02407566  00000+0 -16957-1 0  9999
2 69671  97.2843 229.3854 0001571  97.7542  85.1494 15.77453786  3169
STARLINK-37946          
1 69672U 26143Z   26185.55454394  .00422422  00000+0  20839-2 0  9996
2 69672  97.2832 229.3469 0000604 296.2442  63.8764 15.80994377  3164
TJS-26A                 
1 69674U 26144A   26174.32980920  .00009630 -16661-6  31526-3 0  9997
2 69674  19.5157 324.7456 7314561 179.7910 181.1077  2.27958502    21
STARLINK-38005          
1 69677U 26145A   26185.58335648 -.00050699  00000+0 -34056-3 0  9998
2 69677  97.2853  31.8976 0001093  87.2154   2.2631 15.75224229  2729
STARLINK-38009          
1 69678U 26145B   26185.58335648 -.00046140  00000+0 -30955-3 0  9999
2 69678  97.2855  31.9012 0001183  90.2878   9.1735 15.75234125  2728
STARLINK-37998          
1 69679U 26145C   26185.58335648 -.00138382  00000+0 -94025-3 0  9998
2 69679  97.2853  31.9070 0001230  79.8122  33.6457 15.75232510  2728
STARLINK-37994          
1 69680U 26145D   26185.58335648 -.00069437  00000+0 -46745-3 0  9990
2 69680  97.2853  31.9032 0001531  94.1564  11.2998 15.75238944  2721
STARLINK-37992          
1 69681U 26145E   26185.58335648 -.00083650  00000+0 -56416-3 0  9990
2 69681  97.2854  31.9039 0001534  92.7580  14.7004 15.75242122  2724
STARLINK-37997          
1 69682U 26145F   26185.58335648 -.00108377  00000+0 -73250-3 0  9990
2 69682  97.2855  31.9066 0001153  94.0283  17.4072 15.75268438  2721
STARLINK-37990          
1 69683U 26145G   26185.58335648 -.00145217  00000+0 -98483-3 0  9990
2 69683  97.2851  31.9065 0001495  89.9385  19.4952 15.75294718  2721
STARLINK-37951          
1 69684U 26145H   26185.58335648  .00018686  00000+0  12571-3 0  9992
2 69684  97.2852  31.9078 0001351  95.7366  19.7295 15.75219700  2723
STARLINK-37957          
1 69685U 26145J   26185.58335648 -.00040644  00000+0 -27251-3 0  9995
2 69685  97.2853  31.9105 0001449  88.1499  33.3095 15.75223790  2721
STARLINK-37968          
1 69686U 26145K   26185.58335648 -.00096614  00000+0 -65356-3 0  9992
2 69686  97.2852  31.9256 0001502  77.5679  77.8860 15.75212540  2724
STARLINK-37977          
1 69687U 26145L   26185.58335648 -.00131683  00000+0 -89244-3 0  9991
2 69687  97.2853  31.9272 0001074 124.5001  34.9028 15.75273235  2728
STARLINK-37908          
1 69688U 26145M   26185.58335648  .00056591  00000+0  37824-3 0  9991
2 69688  97.2852  31.9330 0000799  60.0106 111.4044 15.75161581  2725
STARLINK-37979          
1 69689U 26145N   26185.58335648 -.00105597  00000+0 -71512-3 0  9997
2 69689  97.2852  31.9335 0001330  98.4351  75.0146 15.75214035  2721
