OBJECT_NAME,OBJECT_ID,EPOCH,MEAN_MOTION,ECCENTRICITY,INCLINATION,RA_OF_ASC_NODE,ARG_OF_PERICENTER,MEAN_ANOMALY,EPHEMERIS_TYPE,CLASSIFICATION_TYPE,NORAD_CAT_ID,ELEMENT_SET_NO,REV_AT_EPOCH,BSTAR,MEAN_MOTION_DOT,MEAN_MOTION_DDOT
STARLINK-37229,2026-143L,2026-07-04T13:39:19.081440,15.81143530,.00015648,97.2825,229.3278,22.7446,337.3891,0,U,69659,999,317,.32894523E-2,.692914E-2,0
STARLINK-37556,2026-143M,2026-07-04T00:00:02.999808,15.80814941,.00012105,97.2831,228.7305,82.7097,292.3102,0,U,69660,999,310,-.14366592E-3,-.27572E-3,0
STARLINK-37867,2026-143N,2026-07-04T14:00:01.999872,15.80899940,.00014406,97.2835,229.3673,86.3691,55.1647,0,U,69661,999,316,-.61544066E-3,-.116914E-2,0
STARLINK-37852,2026-143P,2026-07-04T13:36:02.038464,15.80133248,.00040792,97.2824,229.3301,11.6915,348.4447,0,U,69662,999,316,.28679534E-2,.568722E-2,0
STARLINK-37554,2026-143Q,2026-07-04T13:26:12.166656,15.81023342,.00021268,97.2831,229.3401,295.8230,64.2819,0,U,69663,999,317,.2531915E-2,.519759E-2,0
STARLINK-37830,2026-143R,2026-07-04T13:34:43.173408,15.80946982,.00007868,97.2834,229.3307,39.1182,321.0144,0,U,69664,999,316,.32009925E-2,.666286E-2,0
STARLINK-37837,2026-143S,2026-07-04T13:25:14.573280,15.81034356,.00008677,97.2828,229.3404,312.4417,47.6778,0,U,69665,999,316,.29503029E-2,.612667E-2,0
STARLINK-37943,2026-143T,2026-07-04T13:28:04.814976,15.79833477,.00041205,97.2819,229.3378,12.8971,347.2401,0,U,69666,999,316,.2583069E-2,.501404E-2,0
STARLINK-37941,2026-143U,2026-07-04T13:29:54.731328,15.81043812,.00006042,97.2827,229.3357,325.7523,34.3706,0,U,69667,999,316,.29377972E-2,.610184E-2,0
STARLINK-37930,2026-143V,2026-07-04T13:28:23.232000,15.81021937,.00004186,97.2829,229.3372,5.3914,354.7359,0,U,69668,999,316,.27785214E-2,.574108E-2,0
STARLINK-37945,2026-143W,2026-07-04T13:25:54.953184,15.80811908,.00022529,97.2806,229.3392,67.4325,292.7182,0,U,69669,999,316,.21776358E-2,.438566E-2,0
STARLINK-37948,2026-143X,2026-07-04T14:00:01.999872,15.70925723,.00016488,97.2850,229.3860,87.2676,96.2800,0,U,69670,999,316,-.22468838E-1,-.2402192E-1,0
STARLINK-37949,2026-143Y,2026-07-04T14:00:01.999872,15.77453786,.00015718,97.2843,229.3854,97.7542,85.1494,0,U,69671,999,316,-.16956856E-1,-.2407566E-1,0
STARLINK-37946,2026-143Z,2026-07-04T13:18:32.596416,15.80994377,.00006042,97.2832,229.3469,296.2442,63.8764,0,U,69672,999,316,.20838561E-2,.422422E-2,0
TJS-26A,2026-144A,2026-06-23T07:54:55.514880,2.27958502,.73145613,19.5157,324.7456,179.7910,181.1077,0,U,69674,999,2,.31526459E-3,.963E-4,-.166614E-6
STARLINK-38005,2026-145A,2026-07-04T14:00:01.999872,15.75224229,.00010938,97.2853,31.8976,87.2154,2.2631,0,U,69677,999,272,-.34055583E-3,-.50699E-3,0
STARLINK-38009,2026-145B,2026-07-04T14:00:01.999872,15.75234125,.00011838,97.2855,31.9012,90.2878,9.1735,0,U,69678,999,272,-.30955112E-3,-.4614E-3,0
STARLINK-37998,2026-145C,2026-07-04T14:00:01.999872,15.75232510,.00012309,97.2853,31.9070,79.8122,33.6457,0,U,69679,999,272,-.94025499E-3,-.138382E-2,0
STARLINK-37994,2026-145D,2026-07-04T14:00:01.999872,15.75238944,.00015315,97.2853,31.9032,94.1564,11.2998,0,U,69680,999,272,-.46744682E-3,-.69437E-3,0
STARLINK-37992,2026-145E,2026-07-04T14:00:01.999872,15.75242122,.00015341,97.2854,31.9039,92.7580,14.7004,0,U,69681,999,272,-.56415915E-3,-.8365E-3,0
STARLINK-37997,2026-145F,2026-07-04T14:00:01.999872,15.75268438,.0001153,97.2855,31.9066,94.0283,17.4072,0,U,69682,999,272,-.73249587E-3,-.108377E-2,0
STARLINK-37990,2026-145G,2026-07-04T14:00:01.999872,15.75294718,.00014959,97.2851,31.9065,89.9385,19.4952,0,U,69683,999,272,-.984826E-3,-.145217E-2,0
STARLINK-37951,2026-145H,2026-07-04T14:00:01.999872,15.75219700,.0001351,97.2852,31.9078,95.7366,19.7295,0,U,69684,999,272,.1257139E-3,.18686E-3,0
STARLINK-37957,2026-145J,2026-07-04T14:00:01.999872,15.75223790,.00014498,97.2853,31.9105,88.1499,33.3095,0,U,69685,999,272,-.27251465E-3,-.40644E-3,0
STARLINK-37968,2026-145K,2026-07-04T14:00:01.999872,15.75212540,.00015023,97.2852,31.9256,77.5679,77.8860,0,U,69686,999,272,-.65355768E-3,-.96614E-3,0
STARLINK-37977,2026-145L,2026-07-04T14:00:01.999872,15.75273235,.00010742,97.2853,31.9272,124.5001,34.9028,0,U,69687,999,272,-.89244423E-3,-.131683E-2,0
STARLINK-37908,2026-145M,2026-07-04T14:00:01.999872,15.75161581,.00007998,97.2852,31.9330,60.0106,111.4044,0,U,69688,999,272,.3782396E-3,.56591E-3,0
STARLINK-37979,2026-145N,2026-07-04T14:00:01.999872,15.75214035,.00013306,97.2852,31.9335,98.4351,75.0146,0,U,69689,999,272,-.715121E-3,-.105597E-2,0
